OBJECT_NAME,OBJECT_ID,EPOCH,MEAN_MOTION,ECCENTRICITY,INCLINATION,RA_OF_ASC_NODE,ARG_OF_PERICENTER,MEAN_ANOMALY,EPHEMERIS_TYPE,CLASSIFICATION_TYPE,NORAD_CAT_ID,ELEMENT_SET_NO,REV_AT_EPOCH,BSTAR,MEAN_MOTION_DOT,MEAN_MOTION_DDOT
SWARM A,2013-067B,2026-07-16T19:55:15.950208,15.51478142,.000333,87.3295,45.2180,93.1179,267.0464,0,U,39452,999,71084,.10172E-3,.6047E-4,0
SWARM C,2013-067C,2026-07-16T19:55:07.953024,15.51477474,.0003327,87.3295,43.7989,93.3289,266.8353,0,U,39453,999,71080,.10204E-3,.6066E-4,0
BRITE-CA1 (TORONTO),2014-033L,2026-07-16T19:07:57.386208,14.72724378,.007856,97.9774,326.1854,181.1277,178.9766,0,U,40020,999,64657,.84822E-4,.514E-5,0
OCO 2,2014-035A,2026-07-16T19:41:30.945120,14.57132959,.0001432,98.2020,138.6636,81.3091,278.8270,0,U,40059,999,64036,.49243E-4,.177E-5,0
BRITE-PL2 (HEWELIUSZ),2014-049B,2026-07-16T18:18:25.710912,14.94689118,.001418,97.9121,309.9960,17.0924,343.0771,0,U,40119,999,64586,.49566E-4,.479E-5,0
MMS 1,2015-011A,2026-07-16T22:00:03.000096,0.28339400,.8303171,72.4871,348.4224,168.1010,91.0843,0,U,40482,999,136,0,-.1382E-4,0
MMS 2,2015-011B,2026-07-16T20:00:01.999008,0.28338797,.8306049,72.4928,348.4211,168.1033,82.5700,0,U,40483,999,136,0,-.1389E-4,0
MMS 3,2015-011C,2026-07-16T20:00:01.999008,0.28338723,.830445,72.4935,348.4326,168.1113,82.5424,0,U,40484,999,133,0,-.1388E-4,0
MMS 4,2015-011D,2026-07-16T20:00:01.999008,0.28338749,.8304403,72.4891,348.4160,168.1212,82.5378,0,U,40485,999,136,0,-.1389E-4,0
ASTROSAT,2015-052A,2026-07-16T18:12:23.167008,14.82553502,.0007378,5.9974,302.4967,97.9118,262.1848,0,U,40930,999,58422,.50377E-4,.1084E-4,0
DAMPE,2015-078A,2026-07-16T20:16:25.153248,15.30855758,.0011398,97.4558,203.4593,339.6570,20.4216,0,U,41173,999,58908,.24104E-4,.642E-5,0
PISAT,2016-059B,2026-07-16T13:40:01.956576,14.69031064,.0030481,97.8192,196.7617,110.6238,249.8241,0,U,41784,999,52405,.81287E-4,.433E-5,0
HXMT (HUIYAN),2017-034A,2026-07-16T20:44:24.880704,15.18697557,.0032105,43.0154,17.7635,331.1962,28.7113,0,U,42758,999,50217,.11784E-3,.2274E-4,0
FLYING LAPTOP,2017-042G,2026-07-16T20:18:41.647968,15.01320334,.001964,97.4812,352.2646,27.2468,332.9783,0,U,42831,999,49090,.17382E-3,.2188E-4,0
ZHANGHENG 1-01 (CSES-1),2018-015C,2026-07-16T21:04:12.021888,15.20621553,.0016544,97.6894,4.1299,159.2432,200.9478,0,U,43194,999,46915,.19216E-3,.4155E-4,0
SALSAT,2020-068K,2026-07-16T13:49:24.532032,15.30183636,.0009353,97.8858,202.4396,187.8123,172.2972,0,U,46495,999,31985,.14101E-3,.4037E-4,0
IXPE,2021-121A,2026-07-16T20:00:01.999008,15.10495536,.0006935,0.2297,92.9329,166.0800,154.1478,0,U,49954,999,566,.32814E-3,.649E-4,0
SMILE,2026-109A,2026-07-13T23:01:31.580256,0.47500629,.83137076,70.0512,206.6048,286.9544,0.1879,0,U,69123,999,6,0,.936E-5,0
