SWARM A                 
1 39452U 13067B   26197.83004572  .00006047  00000+0  10172-3 0  9994
2 39452  87.3295  45.2180 0003330  93.1179 267.0464 15.51478142710845
SWARM C                 
1 39453U 13067C   26197.82995316  .00006066  00000+0  10204-3 0  9996
2 39453  87.3295  43.7989 0003327  93.3289 266.8353 15.51477474710803
BRITE-CA1 (TORONTO)     
1 40020U 14033L   26197.79719197  .00000514  00000+0  84822-4 0  9999
2 40020  97.9774 326.1854 0078560 181.1277 178.9766 14.72724378646570
OCO 2                   
1 40059U 14035A   26197.82049705  .00000177  00000+0  49243-4 0  9991
2 40059  98.2020 138.6636 0001432  81.3091 278.8270 14.57132959640365
BRITE-PL2 (HEWELIUSZ)   
1 40119U 14049B   26197.76279758  .00000479  00000+0  49566-4 0  9992
2 40119  97.9121 309.9960 0014180  17.0924 343.0771 14.94689118645864
MMS 1                   
1 40482U 15011A   26197.91670139 -.00001382  00000+0  00000+0 0  9990
2 40482  72.4871 348.4224 8303171 168.1010  91.0843  0.28339400  1360
MMS 2                   
1 40483U 15011B   26197.83335647 -.00001389  00000+0  00000+0 0  9991
2 40483  72.4928 348.4211 8306049 168.1033  82.5700  0.28338797  1367
MMS 3                   
1 40484U 15011C   26197.83335647 -.00001388  00000+0  00000+0 0  9991
2 40484  72.4935 348.4326 8304450 168.1113  82.5424  0.28338723  1335
MMS 4                   
1 40485U 15011D   26197.83335647 -.00001389  00000+0  00000+0 0  9993
2 40485  72.4891 348.4160 8304403 168.1212  82.5378  0.28338749  1360
ASTROSAT                
1 40930U 15052A   26197.75860147  .00001084  00000+0  50377-4 0  9990
2 40930   5.9974 302.4967 0007378  97.9118 262.1848 14.82553502584220
DAMPE                   
1 41173U 15078A   26197.84473557  .00000642  00000+0  24104-4 0  9991
2 41173  97.4558 203.4593 0011398 339.6570  20.4216 15.30855758589089
PISAT                   
1 41784U 16059B   26197.56946709  .00000433  00000+0  81287-4 0  9995
2 41784  97.8192 196.7617 0030481 110.6238 249.8241 14.69031064524056
HXMT (HUIYAN)           
1 42758U 17034A   26197.86417686  .00002274  00000+0  11784-3 0  9990
2 42758  43.0154  17.7635 0032105 331.1962  28.7113 15.18697557502171
FLYING LAPTOP           
1 42831U 17042G   26197.84631537  .00002188  00000+0  17382-3 0  9996
2 42831  97.4812 352.2646 0019640  27.2468 332.9783 15.01320334490907
ZHANGHENG 1-01 (CSES-1) 
1 43194U 18015C   26197.87791692  .00004155  00000+0  19216-3 0  9996
2 43194  97.6894   4.1299 0016544 159.2432 200.9478 15.20621553469152
SALSAT                  
1 46495U 20068K   26197.57597838  .00004037  00000+0  14101-3 0  9994
2 46495  97.8858 202.4396 0009353 187.8123 172.2972 15.30183636319853
IXPE                    
1 49954U 21121A   26197.83335647  .00006490  00000+0  32814-3 0  9991
2 49954   0.2297  92.9329 0006935 166.0800 154.1478 15.10495536  5667
SMILE                   
1 69123U 26109A   26194.95939329  .00000936  00000+0  00000+0 0  9996
2 69123  70.0512 206.6048 8313707 286.9544   0.1879  0.47500629    65
